Name,Address,City,State,Zip
Bank of America Financial Center,1501 Locust St,Philadelphia,PA,19102
Citibank,1515 Locust St Fl 1,Philadelphia,PA,19102
PNC Bank,1511 Walnut St,Philadelphia,PA,19102
USA Bancshares.com,1535 Locust St,Phila,PA,19102
Citizens Bank,1417 Walnut St,Philadelphia,PA,19102
Nova Bank,200 S Broad St,Philadelphia,PA,19102
Citizens,150 S Broad St,Philadelphia,PA,19102
Chase,114 S 15th St,Philadelphia,PA,19102
Royal Bank Of Pennsylvania,1500 Spruce St,Philadelphia,PA,19102
Santander Bank,1500 Spruce St,Philadelphia,PA,19102
Wells Fargo Bank,1501 Chestnut St,Philadelphia,PA,19102
United Bank of Phila,30 S 15th St Fl 1,Philadelphia,PA,19102
U.S. Bank - ITC,50 S 16th St Ste 1950,Philadelphia,PA,19102
OceanFirst Bank,1500 Market St,Philadelphia,PA,19102
HSBC,1515 Market St Ste 110,Philadelphia,PA,19102
Nova Bank,1420 Locust St Frnt,Philadelphia,PA,19102
Sag-Aftra,230 S Broad St,Philadelphia,PA,19102
Beneficial Bank,106 S 16th St,Philadelphia,PA,19102
"United Bancshares, Inc",30 S 15th St,Philadelphia,PA,19102
First Bank Of Delaware,50 S 16th St,Philadelphia,PA,19102
Republic Bank,50 S 16th St Ste 2400,Phila,PA,19102
Fulton Bank,50 S 16th St,Philadelphia,PA,19102
Prudential Savings Bank,2 Penn Ctr,Philadelphia,PA,19102
First Bankers Trust SVC Inc,1500 Market St,Philadelphia,PA,19102
Heller Financial Inc,1500 Market St,Philadelphia,PA,19102
Royal Bank Of Pa,1500 John F Kennedy Blvd,Philadelphia,PA,19102
Firstrust Bank,1515 16th & Market St,Philadelphia,PA,19102
Complete Merchant Service,,Philadelphia,PA,19102
Santander Bank,2000 Market St,Philadelphia,PA,19103
Univest Bank & Trust Co,2000 Market St,Philadelphia,PA,19103
PNC Bank,1849 Walnut St,Philadelphia,PA,19103
Td Bank,1845 Walnut St,Philadelphia,PA,19103
Truist,1845 Walnut St Ste 125,Philadelphia,PA,19103
BB & T,2040 Market St,Philadelphia,PA,19103
Wells Fargo Bank,2005 Market St Ste 150,Philadelphia,PA,19103
Citizens Bank,2001 Market St Lbby 1,Philadelphia,PA,19103
American Heritage Credit Union,2101 Market St,Philadelphia,PA,19103
M&T Bank,117 S 18th St,Philadelphia,PA,19103
Chase Bank,1835 Market St,Philadelphia,PA,19103
Citizens - Banking & Wealth Center,1835 Market St,Philadelphia,PA,19103
Bank of America Financial Center,1818 Market St,Philadelphia,PA,19103
WSFS Bank,1818 Market St,Philadelphia,PA,19103
Citizens,1700 Walnut St,Philadelphia,PA,19103
Tundidor Wealth and Investment Group,1800 John F Kennedy Blvd Ste 300,Philadelphia,PA,19103
A Branch,2401 Walnut St,Philadelphia,PA,19103
BNY Mellon,1735 Market St,Philadelphia,PA,19103
National Capital Resources,100 N 18th St Ste 300,Philadelphia,PA,19103
OceanFirst Bank,100 N 18th St,Philadelphia,PA,19103
Mizuho Americas,2 Logan Sq,Philadelphia,PA,19103
Brown Brothers Harriman & Co,1 Logan Sq,Philadelphia,PA,19103
FULTON BANK,,Philadelphia,PA,19103
Prudential Savings Bank,112 S 19th St,Philadelphia,PA,19103
Firstrust Bank,1901 Walnut St,Philadelphia,PA,19103
Mps Group,2000 Market St,Philadelphia,PA,19103
Santader Bank Admin Ofcs,2000 Market St,Philadelphia,PA,19103
Jefferson Bank,1845 Walnut St,Philadelphia,PA,19103
Cape Bank,1845 Walnut St,Philadelphia,PA,19103
Northern Trust,2001 Market St,Philadelphia,PA,19103
The Bank of Princeton,1839 Chestnut St,Philadelphia,PA,19103
Pennsylvania Savings Bank,1835 Market St,Philadelphia,PA,19103
Firstrust Bank,1818 Market St,Philadelphia,PA,19103
Beneficial Mutual Savings Bank,1818 Market St,Philadelphia,PA,19103
Beneficial Bank,1818 Market St Fl 8,Philadelphia,PA,19103
The Bancorp Inc,1818 Market St Fl 28,Philadelphia,PA,19103
Citi Private Bank,1818 Market St,Philadelphia,PA,19103
TIAA Financial Services,1700 Market St 23rd Fl,Philadelphia,PA,19103
Conestoga Bank,2301 Market St,Philadelphia,PA,19103
"Alex.Brown, A Division of Raymond James",1735 Market St,Philadelphia,PA,19103
Bank of Ny-Mellon,1735 Market St Fl 4,Philadelphia,PA,19103
Fidelity Bank,1735 Market St Fl 3,Philadelphia,PA,19103
Wilmington Trust,1650 Market Street Suite 3150,Philadelphia,PA,19103
J.P. Morgan Private Bank,1650 Market St 47th Fl,Philadelphia,PA,19103
Conestoga Bank,1632 Walnut St,Philadelphia,PA,19103
Midmarket Capital Advisors,1629 Locust St,Philadelphia,PA,19103
Haas David W,100 N 18th St,Philadelphia,PA,19103
Jefferson Bank,100 N 18th St,Philadelphia,PA,19103
Sovereign Bank,1717 Arch St Lbby 6,Philadelphia,PA,19103
The Philadelphia Trust Company,1617 John F Kennedy Blvd,Philadelphia,PA,19103
Parke Bank,1610 Spruce St,Philadelphia,PA,19103
Starboard Capital Markets,1 Logan Sq,Philadelphia,PA,19103
Franklin Bank SSB,1601 John F Kennedy Blvd,Philadelphia,PA,19103
Citizens Banks,195 Franklin Town Blvd,Philadelphia,PA,19103
TD Bank,4055 Market St,Philadelphia,PA,19104
Chase Bank,4001 Chestnut St,Philadelphia,PA,19104
United Bank,104 S 40th St,Philadelphia,PA,19104
PNC Bank,4058 Chestnut St,Philadelphia,PA,19104
Santander Bank,3802 Chestnut St,Philadelphia,PA,19104
Bank of America Financial Center,3925 Walnut St Ste 131,Philadelphia,PA,19104
Truist,3606 Lancaster Ave,Philadelphia,PA,19104
Wells Fargo Bank,3550 Market St,Philadelphia,PA,19104
Citizens,134 S 34th St,Philadelphia,PA,19104
American Heritage Credit Union,3401 Civic Center Blvd Rm A42,Philadelphia,PA,19104
Univest Bank and Trust Co.,3601 Market St,Philadelphia,PA,19104
First Bank of the United States,120 S 3rd St,Philadelphia,PA,19106
Prism Financial Group,225 S 4th St Apt 402,Philadelphia,PA,19106
Eastern National,318 Chestnut St,Philadelphia,PA,19106
BenefitVault,111 S Independence Mall E Ste 1002,Philadelphia,PA,19106
TD Bank,437 Chestnut St,Philadelphia,PA,19106
PNC Bank,400 Market St,Philadelphia,PA,19106
Citizens,248 Market St,Philadelphia,PA,19106
Chase Bank,123 Chestnut St,Philadelphia,PA,19106
Citizens Bank,123 Chestnut St Fl 1,Philadelphia,PA,19106
Wells Fargo Bank,601 Chestnut St,Philadelphia,PA,19106
Park America,615 Chestnut St,Philadelphia,PA,19106
United Bank,714 Market St,Philadelphia,PA,19106
Citizens,726 Market St,Philadelphia,PA,19106
American Heritage Credit Union,600 Arch St Ste 1400,Philadelphia,PA,19106
Nazareth National Bank,101 S 3rd St,Philadelphia,PA,19106
Firstrust Bank,111 S Independence Mall E Ste 1,Philadelphia,PA,19106
Beneficial Savings,510 Walnut St Fl 19,Philadelphia,PA,19106
American Heritage Credit Union,200 Chestnut St Ste 227,Philadelphia,PA,19106
Beneficial Bank,330 Market St Ste 7,Philadelphia,PA,19106
Prudential Savings Bank,28 N 3rd St,Philadelphia,PA,19106
East River Bank,36 N 3rd St,Philadelphia,PA,19106
Allegiancebank,36 N 3rd St Ste 1,Philadelphia,PA,19106
Federal Reserve Bank Library,100 N Independence Mall W Ste 1,Philadelphia,PA,19106
Mellon Bank Corp,701 Market St Ste C15,Philadelphia,PA,19106
United Bank Of Philadelphia,300 N 3rd St,Philadelphia,PA,19106
WSFS Bank,1110 Chestnut St,Philadelphia,PA,19107
Bank of America Financial Center,932 Chestnut St,Philadelphia,PA,19107
PNC Bank,900 Walnut St,Philadelphia,PA,19107
Citibank,1318 Walnut St,Philadelphia,PA,19107
Chase Bank,1100 Market St,Philadelphia,PA,19107
Santander Bank,1046 Market St,Philadelphia,PA,19107
Citizens Bank,830 Walnut St,Philadelphia,PA,19107
Wells Fargo Private Bank,1 S Broad St,Philadelphia,PA,19107
HSBC,1027 Arch St,Philadelphia,PA,19107
Citizens,1027 Arch St,Philadelphia,PA,19107
"MoreBank, a Division of The Bank of Princeton",921 Arch St,Philadelphia,PA,19107
PFFCU - Police and Fire Federal Credit Union,901 Arch St,Philadelphia,PA,19107
Asian Bank,111 N 9th St,Philadelphia,PA,19107
Beneficial Bank,1139 Chestnut St,Philadelphia,PA,19107
Crusader Holding Corp,1230 Walnut St,Philadelphia,PA,19107
Bryn Mawr Trust,1230 Walnut St,Philadelphia,PA,19107
Citizens Bank,830 Walnut St,Philadelphia,PA,19107
Bank & Bourbon,1200 Market St,Philadelphia,PA,19107
Crusader Bank,1334 Walnut St,Philadelphia,PA,19107
Firstrust Bank,834 Chestnut St,Philadelphia,PA,19107
Republic First Bank,833 Chestnut St Frnt 3,Philadelphia,PA,19107
Conestoga Bank,1032 Arch St Fl 1,Philadelphia,PA,19107
Parke Bank,1032 Arch St,Philadelphia,PA,19107
Abacus Federal Savings Bank,147 N 10th St,Philadelphia,PA,19107
Asian Bank,1023 Race St,Philadelphia,PA,19107
SunTrust Bank,401 N Broad St,Philadelphia,PA,19108
First International Bank,401 N Broad St Fl 1,Philadelphia,PA,19108
Wells Fargo Bank,123 S Broad St Fl 1,Philadelphia,PA,19109
Corestates Bank,123 S Broad St,Philadelphia,PA,19109
Bank of America,1000 Cottman Ave,Philadelphia,PA,19111
Santander Bank,7350 Oxford Ave,Philadelphia,PA,19111
PNC Bank,6705 Rising Sun Ave,Philadelphia,PA,19111
Citizens,6500 Tabor Ave,Philadelphia,PA,19111
Univest Bank & Trust Co,1304 Rhawn St,Philadelphia,PA,19111
Tompkins Community Bank,8000 Verree Rd,Philadelphia,PA,19111
WSFS Bank,1411 Rhawn St,Philadelphia,PA,19111
American Heritage Credit Union,430 Rhawn St,Philadelphia,PA,19111
First Citizens Community Bank,8580 Verree Rd,Philadelphia,PA,19111
Citizens Bank,7248 Rising Sun Ave,Philadelphia,PA,19111
Firstrust Bank,1931 Cottman Ave,Philadelphia,PA,19111
Madison Bank,8000 Verree Rd,Philadelphia,PA,19111
Beneficial Bank,1411 Rhawn St,Philadelphia,PA,19111
American Heritage Credit Union,700 Robbins St,Philadelphia,PA,19111
Univest Bank and Trust Co.,401 Rhawn St,Philadelphia,PA,19111
Huntingdon Valley Federal Savings Bank,8580 Verree Rd,Philadelphia,PA,19111
PNC Bank,1 Crescent Dr,Philadelphia,PA,19112
Citizens Bank,9218 Frankford Ave,Philadelphia,PA,19114
Citizens Bank,9218 Frankford Ave,Philadelphia,PA,19114
PNC Bank,9431 Fairgreen Ln,Philadelphia,PA,19114
Wells Fargo Bank,3250 Red Lion Rd,Philadelphia,PA,19114
WSFS Bank,3202 Red Lion Rd,Philadelphia,PA,19114
Bank of America Financial Center,2439 Welsh Rd,Philadelphia,PA,19114
Beneficial Bank,3202 Red Lion Rd,Philadelphia,PA,19114
Citizens Bank,3200 Red Lion Rd Ste 1,Philadelphia,PA,19114
Citizens Bank,2301 Welsh Rd,Philadelphia,PA,19114
P B B,1691 Grant Ave,Philadelphia,PA,19115
Nova Bank,1695 Grant Ave,Philadelphia,PA,19115
PNC Bank,1714 Grant Ave,Philadelphia,PA,19115
Citizens,9353 Krewstown Rd,Philadelphia,PA,19115
First Trust Bank Krewstown,9309 Krewstown Rd,Philadelphia,PA,19115
Santander Bank,9808 Bustleton Ave,Philadelphia,PA,19115
Bank of America Financial Center,9501 Bustleton Ave,Philadelphia,PA,19115
M&T Bank,9375 Bustleton Ave,Philadelphia,PA,19115
KeyBank,9869 Bustleton Ave,Philadelphia,PA,19115
First Niagara Bank,9869 Bustleton Ave,Philadelphia,PA,19115
Citizens Bank,9896 Bustleton Ave,Philadelphia,PA,19115
Citizens,9042 Roosevelt Blvd,Philadelphia,PA,19115
American Heritage Credit Union,2068 Red Lion Rd,Philadelphia,PA,19115
Firstrust Bank,9309 Krewstown Rd,Philadelphia,PA,19115
Citizens Bank,1970 Red Lion Rd,Philadelphia,PA,19115
American Heritage Credit Union,2060 Red Lion Rd,Philadelphia,PA,19115
American Heritage Federal Credit Union - EPA,2068 Red Lion Rd,Philadelphia,PA,19115
First Niagara Bank,11730 Bustleton Ave,Philadelphia,PA,19116
PNC Bank,11830 Bustleton Ave,Philadelphia,PA,19116
Citizens,10650 Bustleton Ave,Philadelphia,PA,19116
Wells Fargo Bank,10168 Bustleton Ave,Philadelphia,PA,19116
Bank of America,14425 Bustleton Ave,Philadelphia,PA,19116
Washington Savings Bank,10663 Bustleton Ave,Philadelphia,PA,19116
Prime Bank,14425 Bustleton Ave Ste 207,Philadelphia,PA,19116
Citizens Bank,11000 Roosevelt Blvd,Philadelphia,PA,19116
Wells Fargo Bank,8527 Germantown Ave,Philadelphia,PA,19118
Bank of America Financial Center,8601 Germantown Ave,Philadelphia,PA,19118
Santander Bank,8623 Germantown Ave,Philadelphia,PA,19118
TD Bank,8600 Germantown Ave,Philadelphia,PA,19118
Citizens,8616 Germantown Ave,Philadelphia,PA,19118
PNC Bank,8340 Germantown Ave,Philadelphia,PA,19118
BB & T,9 W Evergreen Ave,Philadelphia,PA,19118
Truist,9 W Evergreen Ave,Philadelphia,PA,19118
Citizens Bank,7780 Crittenden St,Philadelphia,PA,19118
Valley Green Bank,23 W Highland Ave,Philadelphia,PA,19118
Santander Bank,6740 Germantown Ave,Philadelphia,PA,19119
Univest Bank and Trust Co.,7226 Germantown Ave,Philadelphia,PA,19119
Wells Fargo Bank,101 E Olney Ave,Philadelphia,PA,19120
Santander Bank,101 E Olney Ave,Philadelphia,PA,19120
PNC Bank,401 W Tabor Rd,Philadelphia,PA,19120
Citizens Bank,6201 N 5th St,Philadelphia,PA,19120
Bank of America Financial Center,5692 Rising Sun Ave,Philadelphia,PA,19120
Duplessis Integral Health,4942 N 5th St,Philadelphia,PA,19120
Tusonn Banking Group,189 E Fariston Dr,Philadelphia,PA,19120
Santander Bank,2077 Ridge Ave Unit 2103,Philadelphia,PA,19121
Bank of America Financial Center,1600 N Broad St Ste 11,Philadelphia,PA,19121
FULTON BANK,,Philadelphia,PA,19121
Chase Bank,1759 N 12th St,Philadelphia,PA,19122
Finanta,1301 N 2nd St,Philadelphia,PA,19122
PNC Bank,1908 Liacouras Walk,Philadelphia,PA,19122
Citizens,1501 N Broad St Ste 1,Philadelphia,PA,19122
United Bank of Philadelphia,1501 N Broad St,Philadelphia,PA,19122
Customers Bank,1501 N Broad St,Philadelphia,PA,19122
PNC Bank,510 N 6th St,Philadelphia,PA,19123
TD Bank,501 Spring Garden St,Philadelphia,PA,19123
Flagstar Bank,413 N 7th St,Philadelphia,PA,19123
American Heritage Credit Union,300 Spring Garden St,Philadelphia,PA,19123
Bank of America Financial Center,545 N Broad St Ste 101,Philadelphia,PA,19123
Chase,632 N 2nd St,Philadelphia,PA,19123
Hyperion Bank,199 W Girard Ave,Philadelphia,PA,19123
BB & T,136 W Girard Ave,Philadelphia,PA,19123
Truist,136 W Girard Ave,Philadelphia,PA,19123
United Bank of Philadelphia,800 Spring Garden St,Philadelphia,PA,19123
First Commonwealth Service Co,459 N 12th St,Philadelphia,PA,19123
Third Federal S&L,905 N 2nd St,Philadelphia,PA,19123
Quaint Oak Bank,117 Spring Garden St # 21,Philadelphia,PA,19123
Oak Quaint Bancorp Inc,100 Spring Garden St,Philadelphia,PA,19123
Third Federal S&L,136 W Girard Ave,Philadelphia,PA,19123
BB & T,2330 E York St,Philadelphia,PA,19125
Truist,2330 E York St,Philadelphia,PA,19125
Chase,2012 Frankford Ave,Philadelphia,PA,19125
Santander Bank,2400 Aramingo Ave,Philadelphia,PA,19125
WSFS Bank,2514 Aramingo Ave,Philadelphia,PA,19125
Citizens Bank,2497 Aramingo Ave,Philadelphia,PA,19125
Citizens,1546 Frankford Ave,Philadelphia,PA,19125
Wells Fargo Bank,1148 Frankford Ave,Philadelphia,PA,19125
Third Federal S&L,2330 E York St,Philadelphia,PA,19125
Beneficial Bank,2514 Aramingo Ave,Philadelphia,PA,19125
Washington Savings Association,2548 E Lehigh Ave,Philadelphia,PA,19125
Tioga Franklin Savings Bank,320 E Girard Ave,Philadelphia,PA,19125
Santander Bank,6601 N Broad St,Philadelphia,PA,19126
TD Bank,6744 N 5th St,Philadelphia,PA,19126
"MoreBank, a Division of The Bank of Princeton",470 W Cheltenham Ave,Philadelphia,PA,19126
Royal Asian Bank,418 Oak Lane Rd,Philadelphia,PA,19126
Santander Bank,3780 Main St,Philadelphia,PA,19127
Roxborough Manayunk Bank,4370 Main St,Philadelphia,PA,19127
Jefferson Bank,3740 Main St,Philadelphia,PA,19127
American Heritage Credit Union,6901 Ridge Ave,Philadelphia,PA,19128
Wells Fargo Bank,6918 Ridge Ave Ste 32,Philadelphia,PA,19128
Citizens,6052 Ridge Ave,Philadelphia,PA,19128
Citizens Bank,5927 Ridge Ave,Philadelphia,PA,19128
WSFS Bank,5873 Ridge Ave,Philadelphia,PA,19128
Santander Bank,518 Port Royal Ave,Philadelphia,PA,19128
Citizens,8345 Ridge Ave,Philadelphia,PA,19128
Amerikick,8500 Henry Ave,Philadelphia,PA,19128
Chase Bank,701 E Cathedral Rd Ste 1,Philadelphia,PA,19128
Citizens Bank,6901 Ridge Ave,Philadelphia,PA,19128
Togatm,7100 Ridge Ave,Philadelphia,PA,19128
Bryn Mawr Trust,7133 Ridge Ave,Philadelphia,PA,19128
S&T Bank,6137 Ridge Ave,Philadelphia,PA,19128
East River Bank,6137 Ridge Ave,Philadelphia,PA,19128
Citizens Bank,5801 Ridge Ave,Philadelphia,PA,19128
Firstrust Bank,600 E Cathedral Rd,Philadelphia,PA,19128
Truist,3617 Midvale Ave,Philadelphia,PA,19129
BB & T,3617 Midvale Ave,Philadelphia,PA,19129
American Heritage Credit Union,2800 Fox St,Philadelphia,PA,19129
American Heritage Federal Credit Union - Hunting Park,2620 W Hunting Park Ave,Philadelphia,PA,19129
S&T Bank,4341 Ridge Ave,Philadelphia,PA,19129
East River Bank,4341 Ridge Ave,Philadelphia,PA,19129
Santander Bank,2320 Fairmount Ave # 26,Philadelphia,PA,19130
Fulton Bank,2133 Spring Garden St,Philadelphia,PA,19130
Wells Fargo Bank,2401 Pennsylvania Ave,Philadelphia,PA,19130
PNC Bank,2001 Hamilton St,Philadelphia,PA,19130
Univest Bank and Trust Co.,1642 Fairmount Ave,Philadelphia,PA,19130
FULTON BANK,2700 Girard Ave,Philadelphia,PA,19130
Chase,1555 Ridge Ave,Philadelphia,PA,19130
Citizens,490 N Broad St,Philadelphia,PA,19130
Polonia Bank,2133 Spring Garden St,Philadelphia,PA,19130
Sun National Bank,1500 Spring Garden St,Philadelphia,PA,19130
TD Bank,4020 City Line Avenue,Philadelphia,PA,19131
Wells Fargo Bank,1575 N 52nd St Ste 500,Philadelphia,PA,19131
American Heritage Credit Union,1575 N 52nd St,Philadelphia,PA,19131
Chase,5610 Lancaster Ave,Philadelphia,PA,19131
Santander Bank,4952 Parkside Ave,Philadelphia,PA,19131
PNC Bank,5600 City Ave,Philadelphia,PA,19131
Bank of America Financial Center,4610 City Ave,Philadelphia,PA,19131
davida r thompson - Private Bank e&t,916 N 46th St Rm REAR,Phila,PA,19131
Atmc Inc,5701 Nassau Rd,Philadelphia,PA,19131
Harris,3900 City Ave,Philadelphia,PA,19131
Muscarella,3900 City Ave,Philadelphia,PA,19131
United Bank Of Phila,2438 W Lehigh Ave,Philadelphia,PA,19132
TD Bank,2121 W Lehigh Ave,Philadelphia,PA,19132
Citizens Bank,2942 N 22nd St,Philadelphia,PA,19132
Wells Fargo Bank,2843 N Broad St,Philadelphia,PA,19132
JLH Investments,2421 N 24th St,Philadelphia,PA,19132
Wells Fargo Bank,1837 E Allegheny Ave,Philadelphia,PA,19134
Bank of America Financial Center,1841 E Allegheny Ave,Philadelphia,PA,19134
M&T Bank,3351 Aramingo Ave,Philadelphia,PA,19134
Td Bank,338 E Allegheny Ave,Philadelphia,PA,19134
Citizens,3500 Aramingo Ave,Philadelphia,PA,19134
Fulton Bank,2646 E Allegheny Ave,Philadelphia,PA,19134
William Penn Bank,2701 E Allegheny Ave,Philadelphia,PA,19134
Chase Bank,3583 Aramingo Ave,Philadelphia,PA,19134
Santander Bank,2401 E Venango St,Philadelphia,PA,19134
Beneficial Bank,826 E Allegheny Ave,Philadelphia,PA,19134
Polonia Bank,2646 E Allegheny Ave,Philadelphia,PA,19134
Washington Savings Bank,2701 E Allegheny Ave,Philadelphia,PA,19134
Global Currency,2990 Richmond St,Philadelphia,PA,19134
Santander Bank,6836 Torresdale Ave,Philadelphia,PA,19135
TD Bank,6363 Frankford Ave,Philadelphia,PA,19135
Wells Fargo Bank,6420 Frankford Ave,Philadelphia,PA,19135
Citizens,6271 Frankford Ave,Philadelphia,PA,19135
PNC Bank,6855 Frankford Ave,Philadelphia,PA,19135
M&T Bank,7121 Frankford Ave,Philadelphia,PA,19135
Beneficial Bank,7262 Frankford Ave,Philadelphia,PA,19135
Citizens Bank,6958 Torresdale Ave Ste 1,Philadelphia,PA,19135
Wells Fargo Bank,8001 Frankford Ave,Philadelphia,PA,19136
Santander Bank,8525 Frankford Ave,Philadelphia,PA,19136
Chase Bank,8000 State Rd,Philadelphia,PA,19136
Citizens,7327 Frankford Ave,Philadelphia,PA,19136
Fulton Bank,7300 Frankford Ave,Philadelphia,PA,19136
Polonia Bank,8000 Frankford Ave,Philadelphia,PA,19136
Washington Savings Bank,8729 Frankford Ave,Philadelphia,PA,19136
Firstrust Bank,7345 Frankford Ave,Philadelphia,PA,19136
Earthstar Bank,8910 Frankford Ave,Philadelphia,PA,19136
Bank of America Financial Center,3745 Aramingo Ave,Philadelphia,PA,19137
Third Federal S&L,2601 Orthodox St,Philadelphia,PA,19137
Polonia Bank,2628 Orthodox St,Philadelphia,PA,19137
Citizens Bank,2706 Kirkbride St,Philadelphia,PA,19137
Polonia Bank,4800 Richmond St,Philadelphia,PA,19137
Polonia Bank,2352 Orthodox St,Philadelphia,PA,19137
Citizens,6324 Stenton Ave,Philadelphia,PA,19138
Beneficial Bank,5301 Chew Ave Ste C,Philadelphia,PA,19138
Citizens Bank,N 52nd St,Philadelphia,PA,19139
Chase Bank,15 S 52nd St,Philadelphia,PA,19139
PNC Bank,19 S 52nd St,Philadelphia,PA,19139
Citizens Bank,15 S 52nd St,Philadelphia,PA,19139
Santander Bank,4849 Market St,Philadelphia,PA,19139
Wells Fargo Bank,601 W Erie Ave,Philadelphia,PA,19140
Citizens Bank,3921 N 5th St,Philadelphia,PA,19140
PNC Bank,3255 N Broad St,Philadelphia,PA,19140
Sovereign Bank,1501 W Erie Ave Apt E,Philadelphia,PA,19140
Citizens - Hunting Park,3921 N 5th St,Philadelphia,PA,19140
Martinez Grocery Store,3301 N 2nd St,Philadelphia,PA,19140
Matos Business Center,3249 N Front St,Philadelphia,PA,19140
Santander Bank,5601 N Broad St,Philadelphia,PA,19141
Bank of America Financial Center,5739 N Broad St Unit A,Philadelphia,PA,19141
PNC Bank,5900 N Broad St,Philadelphia,PA,19141
Chase 5911,5911 N Broad St,Philadelphia,PA,19141
Univest Bank & Trust Co,5010 Old York Rd,Philadelphia,PA,19141
Citizens Bank,4949 N Broad St,Philadelphia,PA,19141
Beneficial Savings Bank,5700 N Broad St,Philadelphia,PA,19141
Santander Bank,6500 Woodland Ave # 06,Philadelphia,PA,19142
WSFS Bank,6401 Woodland Ave,Philadelphia,PA,19142
M&T Bank,6301 Woodland Ave,Philadelphia,PA,19142
Financial Exchange Company of Pennsylvania Inc,6150 Woodland Ave,Philadelphia,PA,19142
Beneficial Bank,6401 Woodland Ave,Philadelphia,PA,19142
Kash Management,5701 Warrington Ave,Philadelphia,PA,19143
"RBS Citizens Financial Group, Incorporated",5500 Germantown Ave,Philadelphia,PA,19144
Citizens Bank,5500 Germantown Ave,Philadelphia,PA,19144
Wells Fargo Bank,5458 Germantown Ave,Philadelphia,PA,19144
Citizens,5703 Germantown Ave,Philadelphia,PA,19144
PNC Bank,150 W Chelten Ave,Philadelphia,PA,19144
WSFS Bank,2301 S 21st St,Philadelphia,PA,19145
Pennsylvania Home Buyers Network,,Philadelphia,PA,19145
Wells Fargo Bank,2300 Snyder Ave,Philadelphia,PA,19145
Santander Bank,1901 W Oregon Ave,Philadelphia,PA,19145
Fulton Bank,1834 W Oregon Ave,Philadelphia,PA,19145
Prudential Savings Bank,1834 W Oregon Ave,Philadelphia,PA,19145
Bank of America Financial Center,2330 W Oregon Ave,Philadelphia,PA,19145
PNC Bank,2522 S Broad St,Philadelphia,PA,19145
Fulton Bank,1722 S Broad St,Philadelphia,PA,19145
United Savings Bank,1510 Packer Ave,Philadelphia,PA,19145
Citizens,2540 S 24th St,Philadelphia,PA,19145
Prudential Savings Bank,2101 S 19th St,Philadelphia,PA,19145
Best Banking Services,2048 S 22nd St,Philadelphia,PA,19145
New Millennium Financial,2043 W Oregon Ave,Philadelphia,PA,19145
Prudential Savings Bank,2600 S 19th St,Philadelphia,PA,19145
Conestoga Bank,2444 S Broad St,Philadelphia,PA,19145
Recovery Center Hyperion,1930 S Broad St,Philadelphia,PA,19145
Prudential Savings Bank,1722 S Broad St,Philadelphia,PA,19145
Taig Joe,3600 Gateway Dr,Philadelphia,PA,19145
Asian Bank,934 E Passyunk Ave,Philadelphia,PA,19147
PNC Bank,801 Christian St,Philadelphia,PA,19147
Chase,833 Wharton St,Philadelphia,PA,19147
Santander Bank,1001 Washington Ave,Philadelphia,PA,19147
Wells Fargo Bank,1400 E Passyunk Ave,Philadelphia,PA,19147
Citizens,900 South St,Philadelphia,PA,19147
Bank of America Financial Center,920 South St,Philadelphia,PA,19147
Conestoga Bank,775 S 10th St,Philadelphia,PA,19147
United Savings Bank,732 S 10th St,Philadelphia,PA,19147
First Penn Bank,15 New Market Sq,Philadelphia,PA,19147
First Penn Bank,10 Catharine St,Philadelphia,PA,19147
TD Bank,2653 S 5th St,Philadelphia,PA,19148
Santander Bank,2701 S 10th St,Philadelphia,PA,19148
Citizens,330 W Oregon Ave,Philadelphia,PA,19148
Wells Fargo Bank,2532 S 13th St Ste 38,Philadelphia,PA,19148
WSFS Bank,1901 E Passyunk Ave,Philadelphia,PA,19148
Beneficial Bank,2037 S Broad St,Philadelphia,PA,19148
Citizens,2001 S Broad St,Philadelphia,PA,19148
Chase,1851 S Columbus Blvd,Philadelphia,PA,19148
Bank of America Financial Center,1950 S Columbus Blvd,Philadelphia,PA,19148
Citizens Bank,1 Citizens Bank Way,Philadelphia,PA,19148
Navy Federal Credit Union,,Philadelphia,PA,19148
Conestoga Bank,1833 E Passyunk Ave,Philadelphia,PA,19148
First Penn Bank,1833 E Passyunk Ave,Philadelphia,PA,19148
Beneficial Bank,1901 E Passyunk Ave,Philadelphia,PA,19148
Prudential Savings Bank,238 Moore St Frnt F,Philadelphia,PA,19148
United Savings Bank,1945 E Passyunk Ave,Philadelphia,PA,19148
Citizens Bank,6601 Roosevelt Blvd,Philadelphia,PA,19149
BB & T,6633 Roosevelt Blvd,Philadelphia,PA,19149
Truist,6633 Roosevelt Blvd,Philadelphia,PA,19149
Santander Bank,6501 Harbison Ave,Philadelphia,PA,19149
TD Bank,6304 Roosevelt Blvd,Philadelphia,PA,19149
Avantax - Steve Aberblatt,6820 Horrocks St,Philadelphia,PA,19149
WSFS Bank,6918 Brous Ave,Philadelphia,PA,19149
Beneficial Bank,6918 Brous Ave,Philadelphia,PA,19149
Citizens,6537 Castor Ave,Philadelphia,PA,19149
Asian Bank,6509 Castor Ave,Philadelphia,PA,19149
Wells Fargo Bank,6611 Castor Ave,Philadelphia,PA,19149
M&T Bank,6500 Castor Ave,Philadelphia,PA,19149
Manufacturers & Traders Trust Company,6500 Castor Ave,Philadelphia,PA,19149
Citizens Bank,2910 Cottman Ave,Philadelphia,PA,19149
PNC Bank,2200 Cottman Ave,Philadelphia,PA,19149
Bank of America Financial Center,2118 Cottman Ave Spc 6,Philadelphia,PA,19149
Citizens,2014 Cottman Ave,Philadelphia,PA,19149
Crusader Bank,6526 Castor Ave,Philadelphia,PA,19149
Citizens Supermarket Branch,2101 Cottman Ave # 41,Philadelphia,PA,19149
Citizens Bank,2101 Cottman Ave,Philadelphia,PA,19149
Santander Bank,1600 E Wadsworth Ave,Philadelphia,PA,19150
Td Bank,2385 W Cheltenham Ave Ste 140,Philadelphia,PA,19150
PNC Bank,2385 W Cheltenham Ave,Philadelphia,PA,19150
Cheltenham,2301 W Cheltenham Ave,Philadelphia,PA,19150
United Bank Of Philadelphia,1620 E Wadsworth Ave,Philadelphia,PA,19150
Citizens Bank,6503 Haverford Ave,Philadelphia,PA,19151
Santander Bank,7520 City Ave,Philadelphia,PA,19151
TD Bank,110509 N 63rd St,Philadelphia,PA,19151
Beneficial Bank,7622 City Ave,Philadelphia,PA,19151
Citizens Bank,7543 Haverford Ave,Philadelphia,PA,19151
Wells Fargo Bank,8200 Roosevelt Blvd,Philadelphia,PA,19152
MB Financial Bank,7918 Bustleton Ave,Philadelphia,PA,19152
PNC Bank,8344 Bustleton Ave,Philadelphia,PA,19152
Santander Bank,7720 Bustleton Ave,Philadelphia,PA,19152
Citizens Bank,2516 Welsh Rd,Philadelphia,PA,19152
Chase Bank,2500 Welsh Rd,Philadelphia,PA,19152
Firstrust Bank,7918 Bustleton Ave,Philadelphia,PA,19152
1st Security Federal Savings Bank,7918 Bustleton Ave,Philadelphia,PA,19152
Beneficial Bank,2845 Holme Ave,Philadelphia,PA,19152
Chase Bank,2900 Island Ave Ste 2942,Philadelphia,PA,19153
PNC Bank,2900 Island Ave Ste 2946,Philadelphia,PA,19153
Wells Fargo Bank,2900 Island Ave Ste 2904,Philadelphia,PA,19153
Mellon Bank,70th Grovers Ave,Philadelphia,PA,19153
Phila District Railway Postal,ESSINGTON Ave,Philadelphia,PA,19153
Citizens,2900 Island Ave,Philadelphia,PA,19153
American Airlines Federal Credit Union,8500 Essington Ave Terminal A-B Connector,Philadelphia,PA,19153
Bank of America,12046 Covert Rd,Philadelphia,PA,19154
TD Bank,3930 Woodhaven Rd,Philadelphia,PA,19154
BB & T,12051 Knights Rd,Philadelphia,PA,19154
Truist,12051 Knights Rd,Philadelphia,PA,19154
PNC Bank,12300 Academy Rd,Philadelphia,PA,19154
Citizens Bank,195 Franklin Mills Blvd,Philadelphia,PA,19154
Washington Savings Bank,2900 Comly Rd,Philadelphia,PA,19154
William Penn Bank,2900 Comly Rd,Philadelphia,PA,19154
Citizens Bank,12301 Knights Rd,Philadelphia,PA,19154
Global Currency Service of PA,1455 Franklin Mills Cir,Philadelphia,PA,19154
